H1 CPF  1  DGF 2022 07 22 11  7031 larets     NONE      
H2   304206 5557    27944 2022 07 22 00 00 00 2022 07 29 00 00 00    30 1 1  0 0 0
H5  0.0650
H9
10 0 59782  46800.000000  0       2646587.592       1764186.910       6290724.162
10 0 59782  46830.000000  0       2847716.495       1803484.136       6190923.048
10 0 59782  46860.000000  0       3046119.746       1840075.908       6084788.963
10 0 59782  46890.000000  0       3241583.432       1873937.127       5972429.356
10 0 59782  46920.000000  0       3433896.449       1905046.384       5853958.079
10 0 59782  46950.000000  0       3622850.736       1933385.968       5729495.283
10 0 59782  46980.000000  0       3808241.509       1958941.876       5599167.296
10 0 59782  47010.000000  0       3989867.485       1981703.814       5463106.506
10 0 59782  47040.000000  0       4167531.109       2001665.195       5321451.233
10 0 59782  47070.000000  0       4341038.776       2018823.132       5174345.595
10 0 59782  47100.000000  0       4510201.054       2033178.431       5021939.365
10 0 59782  47130.000000  0       4674832.900       2044735.571       4864387.830
10 0 59782  47160.000000  0       4834753.875       2053502.685       4701851.632
10 0 59782  47190.000000  0       4989788.357       2059491.537       4534496.609
10 0 59782  47220.000000  0       5139765.748       2062717.485       4362493.626
10 0 59782  47250.000000  0       5284520.676       2063199.448       4186018.395
10 0 59782  47280.000000  0       5423893.183       2060959.864       4005251.283
10 0 59782  47310.000000  0       5557728.904       2056024.642       3820377.129
10 0 59782  47340.000000  0       5685879.235       2048423.120       3631585.055
10 0 59782  47370.000000  0       5808201.518       2038188.008       3439068.285
10 0 59782  47400.000000  0       5924559.207       2025355.330       3243023.940
10 0 59782  47430.000000  0       6034822.040       2009964.364       3043652.837
10 0 59782  47460.000000  0       6138866.190       1992057.575       2841159.275
10 0 59782  47490.000000  0       6236574.412       1971680.543       2635750.823
10 0 59782  47520.000000  0       6327836.194       1948881.890       2427638.101
10 0 59782  47550.000000  0       6412547.879       1923713.202       2217034.554
10 0 59782  47580.000000  0       6490612.802       1896228.942       2004156.226
10 0 59782  47610.000000  0       6561941.395       1866486.365       1789221.525
10 0 59782  47640.000000  0       6626451.294       1834545.430       1572450.998
10 0 59782  47670.000000  0       6684067.443       1800468.698       1354067.095
10 0 59782  47700.000000  0       6734722.183       1764321.246       1134293.931
10 0 59782  47730.000000  0       6778355.337       1726170.560        913357.052
10 0 59782  47760.000000  0       6814914.284       1686086.438        691483.190
10 0 59782  47790.000000  0       6844354.027       1644140.881        468900.023
10 0 59782  47820.000000  0       6866637.247       1600407.988        245835.923
10 0 59782  47850.000000  0       6881734.350       1554963.841         22519.716
10 0 59782  47880.000000  0       6889623.496       1507886.392       -200819.570
10 0 59782  47910.000000  0       6890290.627       1459255.347       -423952.940
10 0 59782  47940.000000  0       6883729.488       1409152.050       -646651.681
10 0 59782  47970.000000  0       6869941.630       1357659.354       -868687.601
10 0 59782  48000.000000  0       6848936.413       1304861.510      -1089833.269
10 0 59782  48030.000000  0       6820730.996       1250844.032      -1309862.258
10 0 59782  48060.000000  0       6785350.326       1195693.582      -1528549.383
10 0 59782  48090.000000  0       6742827.104       1139497.837      -1745670.945
10 0 59782  48120.000000  0       6693201.747       1082345.366      -1961004.964
10 0 59782  48150.000000  0       6636522.344       1024325.503      -2174331.419
10 0 59782  48180.000000  0       6572844.591        965528.216      -2385432.470
10 0 59782  48210.000000  0       6502231.731        906043.988      -2594092.690
10 0 59782  48240.000000  0       6424754.482        845963.678      -2800099.287
10 0 59782  48270.000000  0       6340490.954        785378.403      -3003242.325
10 0 59782  48300.000000  0       6249526.555        724379.410      -3203314.940
10 0 59782  48330.000000  0       6151953.899        663057.942      -3400113.556
10 0 59782  48360.000000  0       6047872.693        601505.120      -3593438.093
10 0 59782  48390.000000  0       5937389.622        539811.812      -3783092.167
10 0 59782  48420.000000  0       5820618.226        478068.510      -3968883.294
10 0 59782  48450.000000  0       5697678.769        416365.206      -4150623.077
10 0 59782  48480.000000  0       5568698.100        354791.273      -4328127.397
10 0 59782  48510.000000  0       5433809.509        293435.343      -4501216.591
10 0 59782  48540.000000  0       5293152.580        232385.186      -4669715.629
10 0 59782  48570.000000  0       5146873.030        171727.598      -4833454.285
10 0 59782  48600.000000  0       4995122.550        111548.287      -4992267.301
10 0 59782  48630.000000  0       4838058.637         51931.757      -5145994.547
10 0 59782  48660.000000  0       4675844.420         -7038.796      -5294481.178
10 0 59782  48690.000000  0       4508648.477        -65281.597      -5437577.775
10 0 59782  48720.000000  0       4336644.657       -122716.392      -5575140.495
10 0 59782  48750.000000  0       4160011.889       -179264.555      -5707031.201
10 0 59782  48780.000000  0       3978933.984       -234849.183      -5833117.597
10 0 59782  48810.000000  0       3793599.440       -289395.200      -5953273.353
10 0 59782  48840.000000  0       3604201.233       -342829.446      -6067378.217
10 0 59782  48870.000000  0       3410936.610       -395080.770      -6175318.128
10 0 59782  48900.000000  0       3214006.876       -446080.114      -6276985.313
10 0 59782  48930.000000  0       3013617.180       -495760.602      -6372278.385
10 0 59782  48960.000000  0       2809976.302       -544057.616      -6461102.431
10 0 59782  48990.000000  0       2603296.433       -590908.876      -6543369.095
10 0 59782  49020.000000  0       2393792.951       -636254.517      -6618996.658
10 0 59782  49050.000000  0       2181684.199       -680037.152      -6687910.109
10 0 59782  49080.000000  0       1967191.259       -722201.949      -6750041.208
10 0 59782  49110.000000  0       1750537.721       -762696.693      -6805328.551
10 0 59782  49140.000000  0       1531949.449       -801471.844      -6853717.620
10 0 59782  49170.000000  0       1311654.346       -838480.595      -6895160.828
10 0 59782  49200.000000  0       1089882.120       -873678.925      -6929617.561
10 0 59782  49230.000000  0        866864.045       -907025.641      -6957054.204
10 0 59782  49260.000000  0        642832.724       -938482.429      -6977444.173
10 0 59782  49290.000000  0        418021.851       -968013.892      -6990767.926
10 0 59782  49320.000000  0        192665.976       -995587.590      -6997012.981
10 0 59782  49350.000000  0        -32999.735      -1021174.069      -6996173.924
10 0 59782  49380.000000  0       -258739.737      -1044746.895      -6988252.413
10 0 59782  49410.000000  0       -484318.352      -1066282.681      -6973257.175
10 0 59782  49440.000000  0       -709500.008      -1085761.105      -6951203.994
10 0 59782  49470.000000  0       -934049.481      -1103164.933      -6922115.690
10 0 59782  49500.000000  0      -1157732.134      -1118480.025      -6886022.101
10 0 59782  49530.000000  0      -1380314.156      -1131695.354      -6842960.046
10 0 59782  49560.000000  0      -1601562.805      -1142803.002      -6792973.297
10 0 59782  49590.000000  0      -1821246.643      -1151798.171      -6736112.526
10 0 59782  49620.000000  0      -2039135.773      -1158679.177      -6672435.258
10 0 59782  49650.000000  0      -2255002.071      -1163447.440      -6602005.814
10 0 59782  49680.000000  0      -2468619.414      -1166107.483      -6524895.254
10 0 59782  49710.000000  0      -2679763.916      -1166666.909      -6441181.311
10 0 59782  49740.000000  0      -2888214.153      -1165136.392      -6350948.324
10 0 59782  49770.000000  0      -3093751.398      -1161529.652      -6254287.161
10 0 59782  49800.000000  0      -3296159.848      -1155863.431      -6151295.134
10 0 59782  49830.000000  0      -3495226.851      -1148157.468      -6042075.914
10 0 59782  49860.000000  0      -3690743.130      -1138434.458      -5926739.426
10 0 59782  49890.000000  0      -3882503.002      -1126720.023      -5805401.753
10 0 59782  49920.000000  0      -4070304.595      -1113042.667      -5678185.020
10 0 59782  49950.000000  0      -4253950.061      -1097433.733      -5545217.282
10 0 59782  49980.000000  0      -4433245.783      -1079927.354      -5406632.405
10 0 59782  50010.000000  0      -4608002.583      -1060560.406      -5262569.937
10 0 59782  50040.000000  0      -4778035.926      -1039372.448      -5113174.981
10 0 59782  50070.000000  0      -4943166.114      -1016405.668      -4958598.053
10 0 59782  50100.000000  0      -5103218.483       -991704.817      -4798994.939
10 0 59782  50130.000000  0      -5258023.592       -965317.150      -4634526.553
10 0 59782  50160.000000  0      -5407417.408       -937292.352      -4465358.774
10 0 59782  50190.000000  0      -5551241.490       -907682.469      -4291662.293
10 0 59782  50220.000000  0      -5689343.160       -876541.830      -4113612.447
10 0 59782  50250.000000  0      -5821575.677       -843926.973      -3931389.041
10 0 59782  50280.000000  0      -5947798.397       -809896.558      -3745176.181
10 0 59782  50310.000000  0      -6067876.933       -774511.284      -3555162.085
10 0 59782  50340.000000  0      -6181683.303       -737833.805      -3361538.905
10 0 59782  50370.000000  0      -6289096.076       -699928.634      -3164502.529
99
